[{"OBJECT_NAME":"CHEOPS","OBJECT_ID":"2019-092B","EPOCH":"2026-03-09T21:50:28.376160","MEAN_MOTION":14.61888226,"ECCENTRICITY":0.00115482,"INCLINATION":98.1514,"RA_OF_ASC_NODE":258.5528,"ARG_OF_PERICENTER":54.8909,"MEAN_ANOMALY":305.3373,"EPHEMERIS_TYPE":0,"CLASSIFICATION_TYPE":"U","NORAD_CAT_ID":44874,"ELEMENT_SET_NO":999,"REV_AT_EPOCH":33139,"BSTAR":0.00010870283,"MEAN_MOTION_DOT":4.97e-6,"MEAN_MOTION_DDOT":0},{"OBJECT_NAME":"DIAMANT R\/B","OBJECT_ID":"1967-011B","EPOCH":"2026-03-09T23:01:25.838112","MEAN_MOTION":14.34400418,"ECCENTRICITY":0.03301408,"INCLINATION":39.9445,"RA_OF_ASC_NODE":294.6723,"ARG_OF_PERICENTER":69.1567,"MEAN_ANOMALY":294.4228,"EPHEMERIS_TYPE":0,"CLASSIFICATION_TYPE":"U","NORAD_CAT_ID":2671,"ELEMENT_SET_NO":999,"REV_AT_EPOCH":4127,"BSTAR":0.00063874557,"MEAN_MOTION_DOT":3.249e-5,"MEAN_MOTION_DDOT":0}]
